SKYSAT-A                
1 39418U 13066C   26198.08357468  .00001507  00000+0  88285-4 0  9995
2 39418  97.3801 246.5281 0020637 206.5952 153.4222 15.13121185693005
SKYSAT-B                
1 40072U 14037D   26197.84617019  .00000601  00000+0  72003-4 0  9991
2 40072  98.3854 158.5062 0005704 167.7385 192.3970 14.88094091650378
SKYSAT-C1               
1 41601U 16040C   26198.04294710  .00005058  00000+0  14290-3 0  9992
2 41601  96.9547 228.1510 0000261 236.3178 123.8043 15.36766876562450
SKYSAT-C4               
1 41771U 16058B   26197.98278752  .00010140  00000+0  18584-3 0  9997
2 41771  96.9161 218.5236 0003474 115.0118 245.1496 15.49473911550089
SKYSAT-C5               
1 41772U 16058C   26197.64663659  .00003977  00000+0  12421-3 0  9999
2 41772  97.0452 236.9643 0002707 156.7043 203.4323 15.33730928548268
SKYSAT-C2               
1 41773U 16058D   26198.29708365  .00006528  00000+0  15146-3 0  9998
2 41773  97.0158 219.2705 0001113 343.1238  16.9973 15.42708898549690
SKYSAT-C3               
1 41774U 16058E   26198.03754474  .00014444  00000+0  22667-3 0  9995
2 41774  96.8991 227.7582 0002623 130.7873 229.3610 15.53761650550745
SKYSAT-C11              
1 42987U 17068A   26197.97438805  .00017693  00000+0  22543-3 0  9995
2 42987  97.4385 348.1412 0001195 155.9503 204.1810 15.59388848487885
SKYSAT-C10              
1 42988U 17068B   26197.89009115  .00005733  00000+0  17054-3 0  9998
2 42988  97.4545 335.0424 0001492 111.5176 248.6227 15.35136658486918
SKYSAT-C9               
1 42989U 17068C   26197.89658958  .00007246  00000+0  17055-3 0  9996
2 42989  97.4465 336.2721 0008498  39.2579 320.9283 15.42239505487335
SKYSAT-C8               
1 42990U 17068D   26198.33642784  .00005680  00000+0  15664-3 0  9992
2 42990  97.4563 335.4097 0001238 104.0587 256.0795 15.37516339486948
SKYSAT-C7               
1 42991U 17068E   26198.33097902  .00005469  00000+0  15111-3 0  9991
2 42991  97.4574 336.3959 0005580  13.9890 346.1508 15.37466247487000
SKYSAT-C6               
1 42992U 17068F   26197.95405848  .00004818  00000+0  14802-3 0  9994
2 42992  97.4611 335.8590 0005071  85.1818 275.0004 15.34187293486888
SKYSAT-C12              
1 43797U 18099AR  26198.12637982  .00010062  00000+0  18211-3 0  9995
2 43797  96.9251 220.1765 0005204  66.0039 294.1758 15.49827865426498
